{
  "type": "FeatureCollection",
  "features": [
    {
      "type": "Feature",
      "properties": {
        "norad_id": 30066,
        "name": "FENGYUN 1C DEB",
        "group": "fengyun-1c-debris",
        "lat": 80.54034242952154,
        "lon": -79.78865159847818,
        "alt_km": 893.1664015506622,
        "timestamp": "2025-12-21T18:54:58.770085+00:00",
        "meta_object_name": "FENGYUN 1C DEB",
        "meta_object_id": "1999-025PT",
        "meta_epoch": "2025-12-21T14:01:32.598912",
        "meta_mean_motion": 14.19115311,
        "meta_eccentricity": 0.0116837,
        "meta_inclination": 98.6347,
        "meta_ra_of_asc_node": 345.7923,
        "meta_arg_of_pericenter": 236.1595,
        "meta_mean_anomaly": 250.2055,
        "meta_ephemeris_type": 0,
        "meta_classification_type": "U",
        "meta_norad_cat_id": 30066,
        "meta_element_set_no": 999,
        "meta_rev_at_epoch": 97962,
        "meta_bstar": 0.00011016051,
        "meta_mean_motion_dot": 2.03e-06,
        "meta_mean_motion_ddot": 0,
        "tle_line1": "1 30066U 99025PT  25355.58440508  .00000203  00000+0  11016-3 0  9990",
        "tle_line2": "2 30066  98.6347 345.7923 0116837 236.1595 250.2055 14.19115311979623"
      },
      "geometry": {
        "type": "Point",
        "coordinates": [
          -79.78865159847818,
          80.54034242952154
        ]
      }
    },
    {
      "type": "Feature",
      "properties": {
        "norad_id": 30067,
        "name": "FENGYUN 1C DEB",
        "group": "fengyun-1c-debris",
        "lat": 81.11745439149176,
        "lon": 142.98624624717272,
        "alt_km": 756.4693987153623,
        "timestamp": "2025-12-21T18:54:58.770094+00:00",
        "meta_object_name": "FENGYUN 1C DEB",
        "meta_object_id": "1999-025PU",
        "meta_epoch": "2025-12-21T15:26:25.914336",
        "meta_mean_motion": 14.43712434,
        "meta_eccentricity": 0.01514,
        "meta_inclination": 98.7655,
        "meta_ra_of_asc_node": 241.9939,
        "meta_arg_of_pericenter": 351.5563,
        "meta_mean_anomaly": 65.8649,
        "meta_ephemeris_type": 0,
        "meta_classification_type": "U",
        "meta_norad_cat_id": 30067,
        "meta_element_set_no": 999,
        "meta_rev_at_epoch": 99327,
        "meta_bstar": 0.00034218686,
        "meta_mean_motion_dot": 1.282e-05,
        "meta_mean_motion_ddot": 0,
        "tle_line1": "1 30067U 99025PU  25355.64335549  .00001282  00000+0  34219-3 0  9994",
        "tle_line2": "2 30067  98.7655 241.9939 0151400 351.5563  65.8649 14.43712434993275"
      },
      "geometry": {
        "type": "Point",
        "coordinates": [
          142.98624624717272,
          81.11745439149176
        ]
      }
    },
    {
      "type": "Feature",
      "properties": {
        "norad_id": 30068,
        "name": "FENGYUN 1C DEB",
        "group": "fengyun-1c-debris",
        "lat": 21.278340063036936,
        "lon": -20.062495069503566,
        "alt_km": 778.7663235858454,
        "timestamp": "2025-12-21T18:54:58.770104+00:00",
        "meta_object_name": "FENGYUN 1C DEB",
        "meta_object_id": "1999-025PV",
        "meta_epoch": "2025-12-21T05:12:45.457056",
        "meta_mean_motion": 14.12054693,
        "meta_eccentricity": 0.0189572,
        "meta_inclination": 98.7371,
        "meta_ra_of_asc_node": 342.8143,
        "meta_arg_of_pericenter": 324.7023,
        "meta_mean_anomaly": 34.1716,
        "meta_ephemeris_type": 0,
        "meta_classification_type": "U",
        "meta_norad_cat_id": 30068,
        "meta_element_set_no": 999,
        "meta_rev_at_epoch": 97463,
        "meta_bstar": 0.00014887,
        "meta_mean_motion_dot": 2.79e-06,
        "meta_mean_motion_ddot": 0,
        "tle_line1": "1 30068U 99025PV  25355.21719279  .00000279  00000+0  14887-3 0  9998",
        "tle_line2": "2 30068  98.7371 342.8143 0189572 324.7023  34.1716 14.12054693974638"
      },
      "geometry": {
        "type": "Point",
        "coordinates": [
          -20.062495069503566,
          21.278340063036936
        ]
      }
    },
    {
      "type": "Feature",
      "properties": {
        "norad_id": 30069,
        "name": "FENGYUN 1C DEB",
        "group": "fengyun-1c-debris",
        "lat": -58.63498112480026,
        "lon": 142.64432383001352,
        "alt_km": 913.3679246703205,
        "timestamp": "2025-12-21T18:54:58.770114+00:00",
        "meta_object_name": "FENGYUN 1C DEB",
        "meta_object_id": "1999-025PW",
        "meta_epoch": "2025-12-21T04:23:31.154208",
        "meta_mean_motion": 14.0523111,
        "meta_eccentricity": 0.00495347,
        "meta_inclination": 98.802,
        "meta_ra_of_asc_node": 336.7822,
        "meta_arg_of_pericenter": 29.8092,
        "meta_mean_anomaly": 30.3888,
        "meta_ephemeris_type": 0,
        "meta_classification_type": "U",
        "meta_norad_cat_id": 30069,
        "meta_element_set_no": 999,
        "meta_rev_at_epoch": 96965,
        "meta_bstar": 0.00034579595,
        "meta_mean_motion_dot": 5.22e-06,
        "meta_mean_motion_ddot": 0,
        "tle_line1": "1 30069U 99025PW  25355.18299947  .00000522  00000+0  34580-3 0  9993",
        "tle_line2": "2 30069  98.8020 336.7822 0049534  29.8092  30.3888 14.05231110969656"
      },
      "geometry": {
        "type": "Point",
        "coordinates": [
          142.64432383001352,
          -58.63498112480026
        ]
      }
    },
    {
      "type": "Feature",
      "properties": {
        "norad_id": 30070,
        "name": "FENGYUN 1C DEB",
        "group": "fengyun-1c-debris",
        "lat": 0.5114206400290151,
        "lon": -125.19817688136732,
        "alt_km": 950.3714609670251,
        "timestamp": "2025-12-21T18:54:58.770124+00:00",
        "meta_object_name": "FENGYUN 1C DEB",
        "meta_object_id": "1999-025PX",
        "meta_epoch": "2025-12-21T09:48:59.181120",
        "meta_mean_motion": 14.09975959,
        "meta_eccentricity": 0.03279278,
        "meta_inclination": 98.2855,
        "meta_ra_of_asc_node": 54.3773,
        "meta_arg_of_pericenter": 293.97,
        "meta_mean_anomaly": 125.3709,
        "meta_ephemeris_type": 0,
        "meta_classification_type": "U",
        "meta_norad_cat_id": 30070,
        "meta_element_set_no": 999,
        "meta_rev_at_epoch": 96001,
        "meta_bstar": 0.0011429069,
        "meta_mean_motion_dot": 3.281e-05,
        "meta_mean_motion_ddot": 0,
        "tle_line1": "1 30070U 99025PX  25355.40901830  .00003281  00000+0  11429-2 0  9992",
        "tle_line2": "2 30070  98.2855  54.3773 0327927 293.9700 125.3709 14.09975959960019"
      },
      "geometry": {
        "type": "Point",
        "coordinates": [
          -125.19817688136732,
          0.5114206400290151
        ]
      }
    },
    {
      "type": "Feature",
      "properties": {
        "norad_id": 30071,
        "name": "FENGYUN 1C DEB",
        "group": "fengyun-1c-debris",
        "lat": -20.736262437372158,
        "lon": 98.63961975347021,
        "alt_km": 729.554425110523,
        "timestamp": "2025-12-21T18:54:58.770134+00:00",
        "meta_object_name": "FENGYUN 1C DEB",
        "meta_object_id": "1999-025PY",
        "meta_epoch": "2025-12-21T06:01:51.625344",
        "meta_mean_motion": 14.52283384,
        "meta_eccentricity": 0.0038489,
        "meta_inclination": 98.6589,
        "meta_ra_of_asc_node": 94.7787,
        "meta_arg_of_pericenter": 84.0002,
        "meta_mean_anomaly": 330.2133,
        "meta_ephemeris_type": 0,
        "meta_classification_type": "U",
        "meta_norad_cat_id": 30071,
        "meta_element_set_no": 999,
        "meta_rev_at_epoch": 98350,
        "meta_bstar": 0.0016577,
        "meta_mean_motion_dot": 6.759e-05,
        "meta_mean_motion_ddot": 0,
        "tle_line1": "1 30071U 99025PY  25355.25129196  .00006759  00000+0  16577-2 0  9995",
        "tle_line2": "2 30071  98.6589  94.7787 0038489  84.0002 330.2133 14.52283384983506"
      },
      "geometry": {
        "type": "Point",
        "coordinates": [
          98.63961975347021,
          -20.736262437372158
        ]
      }
    },
    {
      "type": "Feature",
      "properties": {
        "norad_id": 30072,
        "name": "FENGYUN 1C DEB",
        "group": "fengyun-1c-debris",
        "lat": -14.698961010404437,
        "lon": -37.84192776008582,
        "alt_km": 743.1841268617954,
        "timestamp": "2025-12-21T18:54:58.770144+00:00",
        "meta_object_name": "FENGYUN 1C DEB",
        "meta_object_id": "1999-025PZ",
        "meta_epoch": "2025-12-21T09:39:28.107360",
        "meta_mean_motion": 14.37923904,
        "meta_eccentricity": 0.0060078,
        "meta_inclination": 99.076,
        "meta_ra_of_asc_node": 144.1541,
        "meta_arg_of_pericenter": 247.5531,
        "meta_mean_anomaly": 111.9285,
        "meta_ephemeris_type": 0,
        "meta_classification_type": "U",
        "meta_norad_cat_id": 30072,
        "meta_element_set_no": 999,
        "meta_rev_at_epoch": 97295,
        "meta_bstar": 0.0024249714,
        "meta_mean_motion_dot": 7.436e-05,
        "meta_mean_motion_ddot": 0,
        "tle_line1": "1 30072U 99025PZ  25355.40240865  .00007436  00000+0  24250-2 0  9990",
        "tle_line2": "2 30072  99.0760 144.1541 0060078 247.5531 111.9285 14.37923904972954"
      },
      "geometry": {
        "type": "Point",
        "coordinates": [
          -37.84192776008582,
          -14.698961010404437
        ]
      }
    }
  ]
}